OBJECT_NAME,OBJECT_ID,EPOCH,MEAN_MOTION,ECCENTRICITY,INCLINATION,RA_OF_ASC_NODE,ARG_OF_PERICENTER,MEAN_ANOMALY,EPHEMERIS_TYPE,CLASSIFICATION_TYPE,NORAD_CAT_ID,ELEMENT_SET_NO,REV_AT_EPOCH,BSTAR,MEAN_MOTION_DOT,MEAN_MOTION_DDOT
ONEWEB-0572,2023-004M,2026-07-23T08:40:08.335776,13.17648318,.00019696,87.9153,358.6702,90.7712,269.3645,0,U,55151,999,17224,-.37368031E-4,-.2E-7,0
ONEWEB-0573,2023-004N,2026-07-23T07:23:36.688128,13.18684303,.00027,87.9193,328.2861,90.0949,270.0493,0,U,55152,999,17445,.7909104E-4,.44E-6,0
ONEWEB-0588,2023-004P,2026-07-23T14:30:56.784960,13.18687174,.00019495,87.9197,328.2268,83.7313,276.4041,0,U,55153,999,17449,.22721698E-3,.102E-5,0
ONEWEB-0598,2023-004Q,2026-07-23T11:27:38.243808,13.11415068,.00025283,87.8890,13.8422,94.0819,266.0598,0,U,55154,999,17065,.24556853E-3,.1E-5,0
ONEWEB-0599,2023-004R,2026-07-23T09:33:35.463168,13.17647649,.00019479,87.9156,358.6609,100.7708,259.3643,0,U,55155,999,17225,.37123829E-4,.27E-6,0
ONEWEB-0614,2023-004S,2026-07-23T11:20:18.875616,13.11415639,.00016974,87.8879,13.8510,87.1287,273.0035,0,U,55156,999,17059,.80940772E-3,.3E-5,0
ONEWEB-0616,2023-004T,2026-07-23T08:44:59.434656,13.17647907,.00021059,87.9156,358.6719,119.9365,240.1976,0,U,55157,999,17246,.18265742E-4,.2E-6,0
ONEWEB-0617,2023-004U,2026-07-23T00:04:00.307776,13.11418155,.00017564,87.8897,13.9372,83.0717,277.0611,0,U,55158,999,17055,.14080284E-2,.512E-5,0
ONEWEB-0618,2023-004V,2026-07-23T08:41:11.601312,15.13462078,.00137264,86.9110,162.9463,147.5042,212.7046,0,U,55159,999,18773,.3344406E-3,.6023E-4,0
ONEWEB-0619,2023-004W,2026-07-23T09:31:09.561216,13.17647742,.00014334,87.9163,358.6493,97.6583,262.4712,0,U,55160,999,17236,.45478809E-4,.31E-6,0
ONEWEB-0620,2023-004X,2026-07-23T10:55:53.740704,13.11417941,.00020574,87.8887,13.8539,88.8700,271.2664,0,U,55161,999,17058,.15887638E-2,.576E-5,0
ONEWEB-0621,2023-004Y,2026-07-23T09:45:05.803488,13.11414180,.00016131,87.8892,13.8559,86.8875,273.2438,0,U,55162,999,17055,-.50829509E-3,-.167E-5,0
ONEWEB-0622,2023-004Z,2026-07-23T11:42:16.995744,13.11414510,.00018984,87.8896,13.8429,69.4869,290.6463,0,U,55163,999,17055,-.76436285E-3,-.258E-5,0
ONEWEB-0623,2023-004AA,2026-07-23T09:23:52.749600,13.17648550,.00013209,87.9151,358.6762,72.0657,288.0618,0,U,55164,999,17235,.5750557E-5,.15E-6,0
ONEWEB-0624,2023-004AB,2026-07-23T07:37:50.700288,13.12928068,.00017219,87.8978,343.3963,94.7768,265.3557,0,U,55165,999,17281,.23254048E-3,.97E-6,0
ONEWEB-0625,2023-004AC,2026-07-23T09:09:17.688672,13.17648172,.0001754,87.9156,358.6750,99.2931,260.8399,0,U,55166,999,17234,.11929493E-3,.59E-6,0
ONEWEB-0626,2023-004AD,2026-07-23T08:54:43.851168,13.17648841,.00021585,87.9153,358.6766,95.7078,264.4300,0,U,55167,999,17234,.87734597E-4,.47E-6,0
ONEWEB-0627,2023-004AE,2026-07-23T08:37:42.978144,13.17648784,.00014728,87.9158,358.6792,82.2049,277.9250,0,U,55168,999,17234,.66654897E-4,.39E-6,0
ONEWEB-0628,2023-004AF,2026-07-23T07:30:18.759168,13.12438772,.00012568,87.8977,343.4721,88.1557,271.9715,0,U,55169,999,17277,.86976241E-3,.326E-5,0
ONEWEB-0629,2023-004AG,2026-07-23T09:51:48.990816,13.17649849,.00015049,87.9155,358.6647,97.4471,262.6831,0,U,55170,999,17235,.23371815E-4,.22E-6,0
ONEWEB-0631,2023-004AH,2026-07-23T08:53:26.986272,13.18687079,.00021847,87.9204,328.2425,87.6459,272.4924,0,U,55171,999,17444,.16362143E-3,.77E-6,0
ONEWEB-0709,2023-004AJ,2026-07-23T10:41:15.118368,13.11419395,.00027132,87.8890,13.8583,93.0750,267.0689,0,U,55172,999,17062,.60015909E-3,.225E-5,0
ONEWEB-0710,2023-004AK,2026-07-23T10:12:28.960416,13.17649227,.00018961,87.9142,358.6582,85.0587,275.0761,0,U,55173,999,17235,.74712689E-4,.42E-6,0
ONEWEB-0711,2023-004AL,2026-07-23T09:59:43.933344,13.11416175,.0001567,87.8891,13.8523,68.6056,291.5239,0,U,55174,999,17058,-.12322021E-2,-.424E-5,0
ONEWEB-0713,2023-004AM,2026-07-23T10:26:35.948256,13.11418625,.00016475,87.8896,13.8509,80.1922,279.9391,0,U,55175,999,17057,-.66075201E-3,-.221E-5,0
ONEWEB-0715,2023-004AN,2026-07-23T10:19:16.457376,13.11417873,.00024635,87.8894,13.8523,85.8149,274.3261,0,U,55176,999,17061,-.11082311E-2,-.38E-5,0
ONEWEB-0716,2023-004AP,2026-07-23T08:13:24.842496,13.17648829,.00019105,87.9151,358.6765,100.7907,259.3440,0,U,55177,999,17234,-.55555528E-4,-.9E-7,0
ONEWEB-0717,2023-004AQ,2026-07-23T09:38:27.405312,13.17647711,.00018259,87.9166,358.6559,76.4675,283.6660,0,U,55178,999,17240,.13134822E-3,.64E-6,0
ONEWEB-0719,2023-004AR,2026-07-23T08:03:40.891680,13.17647825,.00017132,87.9165,358.6490,99.6111,260.5215,0,U,55179,999,17234,.17960819E-3,.83E-6,0
ONEWEB-0530,2023-029A,2026-07-23T10:52:35.037120,13.20770167,.00016994,87.9165,267.2387,88.7432,271.3896,0,U,55796,999,16593,.28268178E-3,.128E-5,0
