ONEWEB-0572             
1 55151U 23004M   26204.36120759 -.00000002  00000+0 -37368-4 0  9997
2 55151  87.9153 358.6702 0001969  90.7712 269.3645 13.17648318172247
ONEWEB-0573             
1 55152U 23004N   26204.30806352  .00000044  00000+0  79091-4 0  9995
2 55152  87.9193 328.2861 0002700  90.0949 270.0493 13.18684303174450
ONEWEB-0588             
1 55153U 23004P   26204.60482390  .00000102  00000+0  22722-3 0  9994
2 55153  87.9197 328.2268 0001949  83.7313 276.4041 13.18687174174496
ONEWEB-0598             
1 55154U 23004Q   26204.47752597  .00000100  00000+0  24557-3 0  9995
2 55154  87.8890  13.8422 0002528  94.0819 266.0598 13.11415068170655
ONEWEB-0599             
1 55155U 23004R   26204.39832712  .00000027  00000+0  37124-4 0  9998
2 55155  87.9156 358.6609 0001947 100.7708 259.3643 13.17647649172257
ONEWEB-0614             
1 55156U 23004S   26204.47244069  .00000300  00000+0  80941-3 0  9998
2 55156  87.8879  13.8510 0001697  87.1287 273.0035 13.11415639170591
ONEWEB-0616             
1 55157U 23004T   26204.36457679  .00000020  00000+0  18266-4 0  9991
2 55157  87.9156 358.6719 0002105 119.9365 240.1976 13.17647907172466
ONEWEB-0617             
1 55158U 23004U   26204.00278134  .00000512  00000+0  14080-2 0  9994
2 55158  87.8897  13.9372 0001756  83.0717 277.0611 13.11418155170555
ONEWEB-0618             
1 55159U 23004V   26204.36193983  .00006023  00000+0  33444-3 0  9991
2 55159  86.9110 162.9463 0013726 147.5042 212.7046 15.13462078187730
ONEWEB-0619             
1 55160U 23004W   26204.39663844  .00000031  00000+0  45479-4 0  9999
2 55160  87.9163 358.6493 0001433  97.6583 262.4712 13.17647742172365
ONEWEB-0620             
1 55161U 23004X   26204.45548311  .00000576  00000+0  15888-2 0  9991
2 55161  87.8887  13.8539 0002057  88.8700 271.2664 13.11417941170581
ONEWEB-0621             
1 55162U 23004Y   26204.40631717 -.00000167  00000+0 -50830-3 0  9995
2 55162  87.8892  13.8559 0001613  86.8875 273.2438 13.11414180170558
ONEWEB-0622             
1 55163U 23004Z   26204.48769671 -.00000258  00000+0 -76436-3 0  9996
2 55163  87.8896  13.8429 0001898  69.4869 290.6463 13.11414510170552
ONEWEB-0623             
1 55164U 23004AA  26204.39158275  .00000015  00000+0  57506-5 0  9997
2 55164  87.9151 358.6762 0001320  72.0657 288.0618 13.17648550172355
ONEWEB-0624             
1 55165U 23004AB  26204.31794792  .00000097  00000+0  23254-3 0  9991
2 55165  87.8978 343.3963 0001721  94.7768 265.3557 13.12928068172816
ONEWEB-0625             
1 55166U 23004AC  26204.38145473  .00000059  00000+0  11929-3 0  9999
2 55166  87.9156 358.6750 0001754  99.2931 260.8399 13.17648172172349
ONEWEB-0626             
1 55167U 23004AD  26204.37134087  .00000047  00000+0  87735-4 0  9994
2 55167  87.9153 358.6766 0002158  95.7078 264.4300 13.17648841172341
ONEWEB-0627             
1 55168U 23004AE  26204.35952521  .00000039  00000+0  66655-4 0  9993
2 55168  87.9158 358.6792 0001472  82.2049 277.9250 13.17648784172342
ONEWEB-0628             
1 55169U 23004AF  26204.31271712  .00000326  00000+0  86976-3 0  9992
2 55169  87.8977 343.4721 0001256  88.1557 271.9715 13.12438772172770
ONEWEB-0629             
1 55170U 23004AG  26204.41098369  .00000022  00000+0  23372-4 0  9995
2 55170  87.9155 358.6647 0001504  97.4471 262.6831 13.17649849172354
ONEWEB-0631             
1 55171U 23004AH  26204.37045123  .00000077  00000+0  16362-3 0  9991
2 55171  87.9204 328.2425 0002184  87.6459 272.4924 13.18687079174441
ONEWEB-0709             
1 55172U 23004AJ  26204.44531387  .00000225  00000+0  60016-3 0  9992
2 55172  87.8890  13.8583 0002713  93.0750 267.0689 13.11419395170628
ONEWEB-0710             
1 55173U 23004AK  26204.42533519  .00000042  00000+0  74713-4 0  9997
2 55173  87.9142 358.6582 0001896  85.0587 275.0761 13.17649227172356
ONEWEB-0711             
1 55174U 23004AL  26204.41648071 -.00000424  00000+0 -12322-2 0  9999
2 55174  87.8891  13.8523 0001567  68.6056 291.5239 13.11416175170589
ONEWEB-0713             
1 55175U 23004AM  26204.43513829 -.00000221  00000+0 -66075-3 0  9994
2 55175  87.8896  13.8509 0001647  80.1922 279.9391 13.11418625170579
ONEWEB-0715             
1 55176U 23004AN  26204.43005159 -.00000380  00000+0 -11082-2 0  9990
2 55176  87.8894  13.8523 0002463  85.8149 274.3261 13.11417873170618
ONEWEB-0716             
1 55177U 23004AP  26204.34264864 -.00000009  00000+0 -55556-4 0  9995
2 55177  87.9151 358.6765 0001910 100.7907 259.3440 13.17648829172346
ONEWEB-0717             
1 55178U 23004AQ  26204.40170608  .00000064  00000+0  13135-3 0  9990
2 55178  87.9166 358.6559 0001825  76.4675 283.6660 13.17647711172400
ONEWEB-0719             
1 55179U 23004AR  26204.33588995  .00000083  00000+0  17961-3 0  9997
2 55179  87.9165 358.6490 0001713  99.6111 260.5215 13.17647825172341
ONEWEB-0530             
1 55796U 23029A   26204.45318330  .00000128  00000+0  28268-3 0  9998
2 55796  87.9165 267.2387 0001699  88.7432 271.3896 13.20770167165936
